OBJECT_NAME,OBJECT_ID,EPOCH,MEAN_MOTION,ECCENTRICITY,INCLINATION,RA_OF_ASC_NODE,ARG_OF_PERICENTER,MEAN_ANOMALY,EPHEMERIS_TYPE,CLASSIFICATION_TYPE,NORAD_CAT_ID,ELEMENT_SET_NO,REV_AT_EPOCH,BSTAR,MEAN_MOTION_DOT,MEAN_MOTION_DDOT
STARLINK-36569,2026-014X,2026-07-08T15:41:02.338656,15.33473810,.00015819,97.2869,76.1044,97.4758,262.6665,0,U,67553,999,2731,.48143993E-3,.15514E-3,0
STARLINK-36395,2026-014Y,2026-07-08T16:00:00.835776,15.33501023,.00011615,97.2871,78.9863,48.6478,311.4864,0,U,67554,999,2750,.76815149E-3,.24849E-3,0
STARLINK-36559,2026-014Z,2026-07-08T15:52:47.161344,15.33478022,.00014354,97.2870,76.0919,108.5680,251.5719,0,U,67555,999,2731,.4492844E-3,.14472E-3,0
STARLINK-36426,2026-014AA,2026-07-08T16:39:47.793888,15.33474816,.00017302,97.2854,76.1995,98.5993,261.5446,0,U,67560,999,2732,.41707172E-3,.13426E-3,0
STARLINK-36621,2026-016A,2026-07-08T18:01:31.524384,15.33454070,.00008581,97.2847,249.3934,66.6187,293.5146,0,U,67561,999,2541,.26820679E-4,.791E-5,0
STARLINK-36398,2026-016B,2026-07-08T15:05:19.730112,15.33458423,.00013458,97.2857,249.4068,264.5512,95.5577,0,U,67562,999,2540,.65955286E-3,.21287E-3,0
STARLINK-36403,2026-016C,2026-07-08T15:32:44.834496,15.33465635,.00014779,97.2874,249.3765,81.1701,278.9709,0,U,67563,999,2540,.48712189E-3,.15694E-3,0
STARLINK-36593,2026-016D,2026-07-08T17:14:32.206848,15.33457042,.0001053,97.2824,249.4356,101.1285,259.0076,0,U,67564,999,2541,.632711E-3,.20414E-3,0
STARLINK-35725,2026-016E,2026-07-08T17:41:56.840352,15.33452530,.00003523,97.2839,249.4120,208.8173,151.3050,0,U,67565,999,2541,.59108636E-3,.1906E-3,0
STARLINK-36394,2026-016F,2026-07-08T14:37:55.391232,15.33463524,.00012488,97.2849,249.2805,258.0628,102.0475,0,U,67566,999,2539,.60255518E-3,.19439E-3,0
STARLINK-36352,2026-016G,2026-07-08T15:24:54.616320,15.33456592,.00001663,97.2858,249.3904,263.4814,96.6410,0,U,67567,999,2540,.49759749E-3,.16029E-3,0
STARLINK-36435,2026-016H,2026-07-08T15:09:14.916960,15.33463377,.00002304,97.2846,249.4053,224.3148,135.8076,0,U,67568,999,2540,.53566962E-3,.17268E-3,0
STARLINK-36575,2026-016J,2026-07-08T16:29:41.417952,15.33454861,.00013641,97.2863,250.3920,93.5440,266.5959,0,U,67569,999,2547,.30883428E-3,.9911E-4,0
STARLINK-36562,2026-016K,2026-07-08T15:20:59.883936,15.33440189,.00005712,97.2857,249.3948,89.6170,270.5138,0,U,67570,999,2540,.49788509E-3,.1603E-3,0
STARLINK-36578,2026-016L,2026-07-08T17:49:46.373376,15.33458534,.0001413,97.2845,249.4021,241.7216,118.3884,0,U,67571,999,2541,.39606953E-3,.12739E-3,0
STARLINK-36350,2026-016M,2026-07-08T17:34:06.810528,15.33460978,.00004256,97.2832,249.4191,221.3669,138.7542,0,U,67572,999,2541,.48900416E-3,.15753E-3,0
STARLINK-36588,2026-016N,2026-07-08T16:04:03.737280,15.33461831,.00007138,97.2836,249.3500,149.3230,210.8054,0,U,67573,999,2540,.52668898E-3,.16976E-3,0
STARLINK-36594,2026-016P,2026-07-08T15:17:04.796448,15.33456013,.00002118,97.2863,249.3986,155.9027,204.2226,0,U,67574,999,2540,.43948718E-3,.14145E-3,0
STARLINK-36400,2026-016Q,2026-07-08T17:18:26.048448,15.33455825,.00053458,97.2834,249.4396,194.2607,165.8485,0,U,67575,999,2541,.55970354E-3,.18051E-3,0
STARLINK-36591,2026-016R,2026-07-08T15:28:49.603584,15.33464474,.00005369,97.2853,249.3878,151.2426,208.8846,0,U,67576,999,2540,.52559172E-3,.16941E-3,0
STARLINK-36590,2026-016S,2026-07-08T17:22:22.648800,15.33453871,.00021191,97.2848,249.4317,45.7768,314.3649,0,U,67577,999,2541,.13332158E-3,.4233E-4,0
STARLINK-36613,2026-016T,2026-07-08T16:23:38.000544,15.33458361,.00011767,97.2831,249.3343,184.8438,175.2794,0,U,67578,999,2540,.72401741E-3,.23381E-3,0
STARLINK-36571,2026-016U,2026-07-08T17:26:17.375136,15.33462366,.00011221,97.2801,249.4335,103.4129,256.7239,0,U,67579,999,2541,.43702859E-3,.14068E-3,0
STARLINK-36612,2026-016V,2026-07-08T18:09:20.851776,15.33443439,.00007025,97.2850,249.5404,90.9548,269.1775,0,U,67580,999,2542,.80260459E-3,.25924E-3,0
STARLINK-36632,2026-016W,2026-07-08T15:36:39.736224,15.33469543,.00010938,97.2848,249.3806,80.0775,280.0591,0,U,67581,999,2540,.82800404E-3,.26771E-3,0
STARLINK-36609,2026-016X,2026-07-08T19:04:10.333056,15.33455104,.00014837,97.2849,249.4890,88.9342,271.2070,0,U,67582,999,2542,.2744506E-3,.8798E-4,0
STARLINK-36577,2026-016Y,2026-07-08T18:05:26.225664,15.33451417,.00002825,97.2843,249.5444,141.5876,218.5387,0,U,67583,999,2542,.27168906E-3,.8708E-4,0
STARLINK-36419,2026-016Z,2026-07-08T23:02:59.787744,15.33454115,.00008187,97.2849,249.7234,254.5443,105.5710,0,U,67584,999,2545,.19370116E-3,.6185E-4,0
STARLINK-36560,2026-016AA,2026-07-08T17:53:41.345088,15.33457782,.00008319,97.2855,249.4002,230.8591,129.2578,0,U,67585,999,2541,.42647399E-3,.13724E-3,0
STARLINK-36641,2026-018A,2026-07-08T17:49:30.302976,15.33460618,.00008274,97.2842,254.1994,120.0769,240.0556,0,U,67589,999,2588,.36715943E-3,.11802E-3,0
STARLINK-36376,2026-018B,2026-07-08T17:22:05.604672,15.33453905,.00008762,97.2828,254.2279,249.0768,111.0381,0,U,67590,999,2588,.62867944E-3,.20281E-3,0
STARLINK-36391,2026-018C,2026-07-08T18:09:04.738176,15.33466401,.00003177,97.2869,254.1846,177.7957,182.3288,0,U,67591,999,2588,.60612762E-3,.19557E-3,0
STARLINK-36603,2026-018D,2026-07-08T17:14:16.694592,15.33430331,.00003458,97.2873,254.2366,126.5586,233.5688,0,U,67592,999,2588,-.59044483E-4,-.198E-4,0
STARLINK-36634,2026-018E,2026-07-08T15:32:28.138560,15.33465006,.00003117,97.2869,254.1789,306.6400,53.4814,0,U,67593,999,2587,.53308054E-3,.17185E-3,0
STARLINK-36638,2026-018F,2026-07-08T18:01:14.834496,15.33461491,.00007086,97.2839,254.1898,211.3829,148.7372,0,U,67594,999,2588,.47384484E-3,.15261E-3,0
STARLINK-36628,2026-018G,2026-07-08T17:29:55.714848,15.33464463,.00001336,97.2816,254.2207,297.0809,63.0420,0,U,67595,999,2588,.50252762E-3,.16193E-3,0
STARLINK-36629,2026-018H,2026-07-08T17:41:40.572096,15.33460530,.00002488,97.2839,254.2086,78.2827,281.8444,0,U,67596,999,2588,.48429811E-3,.156E-3,0
STARLINK-36384,2026-018J,2026-07-08T18:16:54.412896,15.33453555,.00021812,97.2833,254.3308,168.0298,192.0997,0,U,67597,999,2589,.53790943E-3,.17336E-3,0
STARLINK-36358,2026-018K,2026-07-08T17:33:50.561280,15.33465814,.00008501,97.2813,254.2184,155.8904,204.2378,0,U,67598,999,2588,.524403E-3,.16904E-3,0
STARLINK-36582,2026-018L,2026-07-08T15:36:22.937472,15.33463037,.00007686,97.2862,254.1756,235.9268,124.1902,0,U,67599,999,2592,.46168359E-3,.14867E-3,0
STARLINK-36640,2026-018M,2026-07-08T17:37:45.992640,15.33463324,.00019644,97.2693,254.2387,94.4534,265.6933,0,U,67600,999,2588,.43463082E-3,.13991E-3,0
STARLINK-36635,2026-018N,2026-07-08T18:24:44.574912,15.33450373,.00012505,97.2849,254.3228,191.1243,168.9973,0,U,67601,999,2589,.48295812E-3,.15551E-3,0
STARLINK-36631,2026-018P,2026-07-08T18:12:59.673600,15.33462343,.00003366,97.2839,254.3337,230.9102,129.2111,0,U,67602,999,2589,.49652182E-3,.15997E-3,0
STARLINK-36626,2026-018Q,2026-07-08T15:28:32.975904,15.33469146,.00007868,97.2849,254.1832,261.6047,98.5107,0,U,67603,999,2587,.51375972E-3,.1656E-3,0
STARLINK-36605,2026-018R,2026-07-08T17:26:01.056768,15.33450844,.00015433,97.2852,254.2270,123.3192,236.8199,0,U,67604,999,2588,.93079714E-4,.2932E-4,0
STARLINK-36281,2026-018S,2026-07-08T17:53:25.390464,15.33453168,.00003728,97.2849,254.2001,157.6154,202.5105,0,U,67605,999,2588,.28766691E-3,.9226E-4,0
STARLINK-35843,2026-018T,2026-07-08T17:18:10.896480,15.33461377,.00001732,97.2829,254.2325,72.2735,287.8527,0,U,67606,999,2588,.24189583E-3,.7746E-4,0
STARLINK-36351,2026-018U,2026-07-08T15:24:38.312640,15.33461015,.00004335,97.2847,254.1875,242.8018,117.3180,0,U,67607,999,2587,.45478612E-3,.14643E-3,0
STARLINK-36411,2026-018V,2026-07-08T17:57:20.051136,15.33463589,.00007552,97.2815,254.2001,154.2139,205.9141,0,U,67608,999,2588,.53894213E-3,.17374E-3,0
STARLINK-36312,2026-018W,2026-07-08T23:10:33.404160,15.33426889,.00012624,97.2839,254.5125,71.3602,288.7777,0,U,67609,999,2592,.68494223E-3,.2209E-3,0
STARLINK-36387,2026-018X,2026-07-08T22:00:01.999584,15.36963573,.00017327,97.2848,261.1627,83.3261,327.7732,0,U,67610,999,594,-.21821883E-3,-.7949E-4,0
STARLINK-36636,2026-018Y,2026-07-08T18:05:09.733632,15.33462309,.00015434,97.2843,254.1853,220.0951,140.0178,0,U,67611,999,2588,.33556368E-3,.1078E-3,0
STARLINK-36407,2026-018Z,2026-07-08T18:20:49.572096,15.33459612,.00007447,97.2847,254.3272,81.6122,278.5205,0,U,67612,999,2594,.50492875E-3,.16268E-3,0
STARLINK-36597,2026-018AA,2026-07-08T17:45:35.410752,15.33451831,.00004293,97.2837,254.2094,201.8156,158.3068,0,U,67613,999,2588,.38018956E-3,.12221E-3,0
STARLINK-36548,2026-020A,2026-07-08T09:59:11.050368,15.27585731,.00015582,43.0018,178.3001,271.2125,88.8548,0,U,67617,999,2457,.55540065E-3,.15055E-3,0
STARLINK-36601,2026-020B,2026-07-08T09:38:51.402912,15.27584549,.000142,42.9992,178.1677,281.0823,78.9869,0,U,67618,999,2457,.36823672E-3,.9886E-4,0
STARLINK-36119,2026-020C,2026-07-08T23:57:22.078080,15.27589390,.00009818,43.0005,174.9204,278.2838,81.7902,0,U,67619,999,2466,.32504427E-3,.8696E-4,0
STARLINK-36607,2026-020D,2026-07-08T16:39:40.634784,15.27592755,.00015155,43.0025,176.0606,268.6642,91.4036,0,U,67620,999,2462,.43323986E-3,.11683E-3,0
STARLINK-36615,2026-020E,2026-07-08T22:36:08.170272,15.27593708,.00003667,42.9947,175.3424,348.4085,11.6758,0,U,67621,999,2465,.49021022E-3,.13258E-3,0
STARLINK-36614,2026-020F,2026-07-08T08:01:00.249024,15.27585933,.00010892,42.9990,178.5284,265.0560,95.0167,0,U,67622,999,2456,.36342554E-3,.9754E-4,0
STARLINK-36600,2026-020G,2026-07-08T23:51:48.981888,15.27593926,.00011429,42.9996,174.8942,284.0345,76.0380,0,U,67623,999,2466,.4259608E-3,.11483E-3,0
STARLINK-36439,2026-020H,2026-07-08T23:27:44.125920,15.27588667,.00007085,42.9989,174.7597,282.7971,77.2802,0,U,67624,999,2466,.34670581E-3,.9293E-4,0
STARLINK-36438,2026-020J,2026-07-08T15:48:04.889952,15.27591158,.00013633,42.9989,176.6629,269.7639,90.3056,0,U,67625,999,2461,.42017841E-3,.11322E-3,0
